{
  "type": "FeatureCollection",
  "features": [
    {
      "type": "Feature",
      "properties": {
        "norad_id": 66640,
        "name": "STARLINK-35921",
        "group": "last-30-days",
        "lat": -53.13174476435308,
        "lon": 89.20822152262785,
        "alt_km": 424.1595811457255,
        "timestamp": "2025-12-14T16:47:39.437586+00:00",
        "meta_object_name": "STARLINK-35921",
        "meta_object_id": "2025-271Z",
        "meta_epoch": "2025-12-13T20:00:03.000384",
        "meta_mean_motion": 15.49273434,
        "meta_eccentricity": 0.00012222,
        "meta_inclination": 53.1601,
        "meta_ra_of_asc_node": 181.9112,
        "meta_arg_of_pericenter": 81.9607,
        "meta_mean_anomaly": 33.767,
        "meta_ephemeris_type": 0,
        "meta_classification_type": "U",
        "meta_norad_cat_id": 66640,
        "meta_element_set_no": 999,
        "meta_rev_at_epoch": 441,
        "meta_bstar": 0.0011924891,
        "meta_mean_motion_dot": 0.00066355,
        "meta_mean_motion_ddot": 0,
        "tle_line1": "1 66640U 25271Z   25347.83336806  .00066355  00000+0  11925-2 0  9991",
        "tle_line2": "2 66640  53.1601 181.9112 0001222  81.9607  33.7670 15.49273434  4418"
      },
      "geometry": {
        "type": "Point",
        "coordinates": [
          89.20822152262785,
          -53.13174476435308
        ]
      }
    },
    {
      "type": "Feature",
      "properties": {
        "norad_id": 66641,
        "name": "STARLINK-35923",
        "group": "last-30-days",
        "lat": -52.30693189593386,
        "lon": 101.75665848454541,
        "alt_km": 424.15938561186886,
        "timestamp": "2025-12-14T16:47:39.437596+00:00",
        "meta_object_name": "STARLINK-35923",
        "meta_object_id": "2025-271AA",
        "meta_epoch": "2025-12-13T20:00:03.000384",
        "meta_mean_motion": 15.49276543,
        "meta_eccentricity": 0.00012518,
        "meta_inclination": 53.16,
        "meta_ra_of_asc_node": 181.894,
        "meta_arg_of_pericenter": 85.5705,
        "meta_mean_anomaly": 37.8185,
        "meta_ephemeris_type": 0,
        "meta_classification_type": "U",
        "meta_norad_cat_id": 66641,
        "meta_element_set_no": 999,
        "meta_rev_at_epoch": 441,
        "meta_bstar": 0.0011283943,
        "meta_mean_motion_dot": 0.00062742,
        "meta_mean_motion_ddot": 0,
        "tle_line1": "1 66641U 25271AA  25347.83336806  .00062742  00000+0  11284-2 0  9996",
        "tle_line2": "2 66641  53.1600 181.8940 0001251  85.5705  37.8185 15.49276543  4417"
      },
      "geometry": {
        "type": "Point",
        "coordinates": [
          101.75665848454541,
          -52.30693189593386
        ]
      }
    },
    {
      "type": "Feature",
      "properties": {
        "norad_id": 66642,
        "name": "STARLINK-35926",
        "group": "last-30-days",
        "lat": -52.63570244522406,
        "lon": 98.68236153171696,
        "alt_km": 423.622192525685,
        "timestamp": "2025-12-14T16:47:39.437606+00:00",
        "meta_object_name": "STARLINK-35926",
        "meta_object_id": "2025-271AB",
        "meta_epoch": "2025-12-13T20:00:03.000384",
        "meta_mean_motion": 15.49301362,
        "meta_eccentricity": 6.862e-05,
        "meta_inclination": 53.1598,
        "meta_ra_of_asc_node": 181.8992,
        "meta_arg_of_pericenter": 54.3948,
        "meta_mean_anomaly": 67.0112,
        "meta_ephemeris_type": 0,
        "meta_classification_type": "U",
        "meta_norad_cat_id": 66642,
        "meta_element_set_no": 999,
        "meta_rev_at_epoch": 418,
        "meta_bstar": 0.0011272017,
        "meta_mean_motion_dot": 0.0006273,
        "meta_mean_motion_ddot": 0,
        "tle_line1": "1 66642U 25271AB  25347.83336806  .00062730  00000+0  11272-2 0  9991",
        "tle_line2": "2 66642  53.1598 181.8992 0000686  54.3948  67.0112 15.49301362  4182"
      },
      "geometry": {
        "type": "Point",
        "coordinates": [
          98.68236153171696,
          -52.63570244522406
        ]
      }
    },
    {
      "type": "Feature",
      "properties": {
        "norad_id": 66643,
        "name": "STARLINK-35918",
        "group": "last-30-days",
        "lat": -53.0517443744245,
        "lon": 92.35931236155034,
        "alt_km": 424.1390019196151,
        "timestamp": "2025-12-14T16:47:39.437616+00:00",
        "meta_object_name": "STARLINK-35918",
        "meta_object_id": "2025-271AC",
        "meta_epoch": "2025-12-13T20:00:03.000384",
        "meta_mean_motion": 15.49271923,
        "meta_eccentricity": 0.00011391,
        "meta_inclination": 53.16,
        "meta_ra_of_asc_node": 181.9074,
        "meta_arg_of_pericenter": 81.4287,
        "meta_mean_anomaly": 36.2236,
        "meta_ephemeris_type": 0,
        "meta_classification_type": "U",
        "meta_norad_cat_id": 66643,
        "meta_element_set_no": 999,
        "meta_rev_at_epoch": 441,
        "meta_bstar": 0.0010617506,
        "meta_mean_motion_dot": 0.00058971,
        "meta_mean_motion_ddot": 0,
        "tle_line1": "1 66643U 25271AC  25347.83336806  .00058971  00000+0  10618-2 0  9997",
        "tle_line2": "2 66643  53.1600 181.9074 0001139  81.4287  36.2236 15.49271923  4410"
      },
      "geometry": {
        "type": "Point",
        "coordinates": [
          92.35931236155034,
          -53.0517443744245
        ]
      }
    },
    {
      "type": "Feature",
      "properties": {
        "norad_id": 66644,
        "name": "STARLINK-35938",
        "group": "last-30-days",
        "lat": -52.882711523827226,
        "lon": 95.58175824434562,
        "alt_km": 423.9143949374484,
        "timestamp": "2025-12-14T16:47:39.437626+00:00",
        "meta_object_name": "STARLINK-35938",
        "meta_object_id": "2025-271AD",
        "meta_epoch": "2025-12-13T20:00:03.000384",
        "meta_mean_motion": 15.49382846,
        "meta_eccentricity": 7.602e-05,
        "meta_inclination": 53.1598,
        "meta_ra_of_asc_node": 181.9033,
        "meta_arg_of_pericenter": 59.6495,
        "meta_mean_anomaly": 59.8438,
        "meta_ephemeris_type": 0,
        "meta_classification_type": "U",
        "meta_norad_cat_id": 66644,
        "meta_element_set_no": 999,
        "meta_rev_at_epoch": 441,
        "meta_bstar": -0.00046881726,
        "meta_mean_motion_dot": -0.00026501,
        "meta_mean_motion_ddot": 0,
        "tle_line1": "1 66644U 25271AD  25347.83336806 -.00026501  00000+0 -46882-3 0  9997",
        "tle_line2": "2 66644  53.1598 181.9033 0000760  59.6495  59.8438 15.49382846  4411"
      },
      "geometry": {
        "type": "Point",
        "coordinates": [
          95.58175824434562,
          -52.882711523827226
        ]
      }
    },
    {
      "type": "Feature",
      "properties": {
        "norad_id": 66645,
        "name": "SHENZHOU-22",
        "group": "last-30-days",
        "lat": -1.8401706696037983,
        "lon": 2.7210981107660217,
        "alt_km": 385.9972266534378,
        "timestamp": "2025-12-14T16:47:39.437638+00:00",
        "meta_object_name": "SHENZHOU-22",
        "meta_object_id": "2025-272A",
        "meta_epoch": "2025-12-13T19:17:07.421568",
        "meta_mean_motion": 15.59230309,
        "meta_eccentricity": 0.00080892,
        "meta_inclination": 41.4685,
        "meta_ra_of_asc_node": 10.2494,
        "meta_arg_of_pericenter": 39.7422,
        "meta_mean_anomaly": 320.4007,
        "meta_ephemeris_type": 0,
        "meta_classification_type": "U",
        "meta_norad_cat_id": 66645,
        "meta_element_set_no": 999,
        "meta_rev_at_epoch": 26357,
        "meta_bstar": 0.00031564739,
        "meta_mean_motion_dot": 0.00025274,
        "meta_mean_motion_ddot": 0,
        "tle_line1": "1 66645U 25272A   25347.80355812  .00025274  00000+0  31565-3 0  9990",
        "tle_line2": "2 66645  41.4685  10.2494 0008089  39.7422 320.4007 15.59230309263575"
      },
      "geometry": {
        "type": "Point",
        "coordinates": [
          2.7210981107660217,
          -1.8401706696037983
        ]
      }
    },
    {
      "type": "Feature",
      "properties": {
        "norad_id": 66647,
        "name": "COSMOS 2597 (RODNIK-S 22)",
        "group": "last-30-days",
        "lat": -47.435474490893,
        "lon": 113.47934538167213,
        "alt_km": 1501.624423818429,
        "timestamp": "2025-12-14T16:47:39.437649+00:00",
        "meta_object_name": "COSMOS 2597 (RODNIK-S 22)",
        "meta_object_id": "2025-273A",
        "meta_epoch": "2025-12-13T22:10:10.579584",
        "meta_mean_motion": 12.419517,
        "meta_eccentricity": 0.00078714,
        "meta_inclination": 82.4988,
        "meta_ra_of_asc_node": 285.7136,
        "meta_arg_of_pericenter": 286.2471,
        "meta_mean_anomaly": 73.7742,
        "meta_ephemeris_type": 0,
        "meta_classification_type": "U",
        "meta_norad_cat_id": 66647,
        "meta_element_set_no": 999,
        "meta_rev_at_epoch": 228,
        "meta_bstar": 0.00045572818,
        "meta_mean_motion_dot": 7.2e-07,
        "meta_mean_motion_ddot": 0,
        "tle_line1": "1 66647U 25273A   25347.92373356  .00000072  00000+0  45573-3 0  9992",
        "tle_line2": "2 66647  82.4988 285.7136 0007871 286.2471  73.7742 12.41951700  2287"
      },
      "geometry": {
        "type": "Point",
        "coordinates": [
          113.47934538167213,
          -47.435474490893
        ]
      }
    }
  ]
}